NORAD_CAT_ID,OBJECT_NAME,OBJECT_TYPE,EPOCH,MEAN_MOTION,ECCENTRICITY,INCLINATION,RA_OF_ASC_NODE,ARG_OF_PERICENTER,MEAN_ANOMALY,BSTAR,MEAN_MOTION_DOT,MEAN_MOTION_DDOT,TLE_LINE0,TLE_LINE1,TLE_LINE2,SEMIMAJOR_AXIS,PERIOD,APOGEE,PERIGEE,DECAYED
52290.0,STARLINK-3772,PAYLOAD,2022-07-02 14:00:01,15.31904818,0.0001401,53.2176,23.2482,68.8355,166.0983,-0.024832,-0.00715903,0.0,0 STARLINK-3772,1 52290U 22041AF  22183.58334491 -.00715903  00000-0 -24832-1 0  9997,2 52290  53.2176  23.2482 0001401  68.8355 166.0983 15.31904818  1303,6848.267,94.001,471.091,469.172,0.0
52290.0,STARLINK-3772,PAYLOAD,2022-07-02 22:00:00,15.31394612,0.0001406999999999,53.2176,21.7001,64.0543,209.8776,-0.025229,-0.00715789,0.0,0 STARLINK-3772,1 52290U 22041AF  22183.91667824 -.00715789  00000-0 -25229-1 0  9996,2 52290  53.2176  21.7001 0001407  64.0543 209.8776 15.31394612  1307,6849.7869999999975,94.032,472.616,470.689,0.0
52290.0,STARLINK-3772,PAYLOAD,2022-07-03 14:00:01,15.30374801,0.0001323,53.2177,18.6019,59.8622,290.2303,-0.026046,-0.00715761,0.0,0 STARLINK-3772,1 52290U 22041AF  22184.58334491 -.00715761  00000-0 -26046-1 0  9999,2 52290  53.2177  18.6019 0001323  59.8622 290.2303 15.30374801 12634,6852.83,94.095,475.602,473.789,0.0
52290.0,STARLINK-3772,PAYLOAD,2022-07-03 22:00:00,15.29865625,0.0001438,53.2176,17.0572,52.1563,335.0958,-0.026544,-0.00717822,0.0,0 STARLINK-3772,1 52290U 22041AF  22184.91667824 -.00717822  00000-0 -26544-1 0  9998,2 52290  53.2176  17.0572 0001438  52.1563 335.0958 15.29865625  1300,6854.351,94.126,477.201,475.23,0.0
52290.0,STARLINK-3772,PAYLOAD,2022-07-04 14:00:01,15.28844281,0.0001426999999999,53.2177,13.9662,57.3697,42.3669,-0.027293,-0.00715294,0.0,0 STARLINK-3772,1 52290U 22041AF  22185.58334491 -.00715294  00000-0 -27293-1 0  9996,2 52290  53.2177  13.9662 0001427  57.3697  42.3669 15.28844281  1300,6857.403,94.189,480.247,478.289,0.0
52290.0,STARLINK-3772,PAYLOAD,2022-07-04 22:00:00,15.28333612,0.0001558,53.2176,12.4252,53.1745,81.8837,-0.027682,-0.00722512,0.0,0 STARLINK-3772,1 52290U 22041AF  22185.91667824 -.00722512  00000-0 -27682-1 0  9995,2 52290  53.2176  12.4252 0001558  53.1745  81.8837 15.28333612  1307,6858.93,94.22,481.864,479.727,0.0
52290.0,STARLINK-3772,PAYLOAD,2022-07-05 14:00:01,15.27314027,0.0001467,53.2178,9.3417,63.6415,140.2235,-0.028569,-0.00722686,0.0,0 STARLINK-3772,1 52290U 22041AF  22186.58334491 -.00722686  00000-0 -28569-1 0  9997,2 52290  53.2178   9.3417 0001467  63.6415 140.2235 15.27314027 12948,6861.983,94.283,484.854,482.841,0.0
52290.0,STARLINK-3772,PAYLOAD,2022-07-05 22:00:00,15.26802567,0.0001446,53.2176,7.8039999999999985,65.0764,172.27200000000005,-0.028899,-0.00719904,0.0,0 STARLINK-3772,1 52290U 22041AF  22186.91667824 -.00719904  00000-0 -28899-1 0  9998,2 52290  53.2176   7.8040 0001446  65.0764 172.2720 15.26802567  1303,6863.515,94.315,486.372,484.388,0.0
52290.0,STARLINK-3772,PAYLOAD,2022-07-06 14:00:01,15.25784944,0.0001337,53.2177,4.7277,66.7989,235.679,-0.02998,-0.00723807,0.0,0 STARLINK-3772,1 52290U 22041AF  22187.58334491 -.00723807  00000-0 -29980-1 0  9992,2 52290  53.2177   4.7277 0001337  66.7989 235.6790 15.25784944 13095,6866.566,94.378,489.349,487.513,0.0
52290.0,STARLINK-3772,PAYLOAD,2022-07-06 22:00:00,15.25273582,0.0001346,53.2175,3.1936,60.8346,273.2885,-0.030337,-0.00721361,0.0,0 STARLINK-3772,1 52290U 22041AF  22187.91667824 -.00721361  00000-0 -30337-1 0  9999,2 52290  53.2175   3.1936 0001346  60.8346 273.2885 15.25273582  1305,6868.101,94.409,490.89,489.042,0.0
52290.0,STARLINK-3772,PAYLOAD,2022-07-07 02:50:39,15.26317023,0.0002657,53.215,2.2767,45.7473,314.3744,-0.0086772,-0.00221881,0.0,0 STARLINK-3772,1 52290U 22041AF  22188.11850713 -.00221881  00000-0 -86772-2 0  9990,2 52290  53.2150   2.2767 0002657  45.7473 314.3744 15.26317023 13178,6864.971,94.345,488.66,485.011,0.0
52290.0,STARLINK-3772,PAYLOAD,2022-07-07 14:00:01,15.24255874,0.000129,53.2177,0.1247,65.3833,330.1926,-0.031474,-0.00725514,0.0,0 STARLINK-3772,1 52290U 22041AF  22188.58334491 -.00725514  00000-0 -31474-1 0  9991,2 52290  53.2177   0.1247 0001290  65.3833 330.1926 15.24255874 13246,6871.158,94.472,493.909,492.136,0.0
52290.0,STARLINK-3772,PAYLOAD,2022-07-07 22:00:00,15.2374253,0.000136,53.2174,358.594,60.0751,5.3084,-0.031692,-0.007198,0.0,0 STARLINK-3772,1 52290U 22041AF  22188.91667824 -.00719800  00000-0 -31692-1 0  9990,2 52290  53.2174 358.5940 0001360  60.0751   5.3084 15.23742530  1301,6872.701,94.504,495.501,493.631,0.0
52290.0,STARLINK-3772,PAYLOAD,2022-07-08 14:00:01,15.22725219,0.0001406,53.2177,355.5322,64.3143,58.8451,-0.0329,-0.00724565,0.0,0 STARLINK-3772,1 52290U 22041AF  22189.58334491 -.00724565  00000-0 -32900-1 0  9992,2 52290  53.2177 355.5322 0001406  64.3143  58.8451 15.22725219  1303,6875.762,94.567,498.593,496.66,0.0
52290.0,STARLINK-3772,PAYLOAD,2022-07-08 22:00:01,15.22210996,0.0001367,53.2174,354.005,72.9422,78.2502,-0.0330279999999999,-0.00716899,0.0,0 STARLINK-3772,1 52290U 22041AF  22189.91668981 -.00716899  00000-0 -33028-1 0  9996,2 52290  53.2174 354.0050 0001367  72.9422  78.2502 15.22210996 13456,6877.31,94.599,500.115,498.235,0.0
52290.0,STARLINK-3772,PAYLOAD,2022-07-09 14:00:01,15.21194044,0.0001473,53.2177,350.9507,65.24,139.9877,-0.034304,-0.00722177,0.0,0 STARLINK-3772,1 52290U 22041AF  22190.58334491 -.00722177  00000-0 -34304-1 0  9991,2 52290  53.2177 350.9507 0001473  65.2400 139.9877 15.21194044  1305,6880.375,94.662,503.253,501.226,0.0
52290.0,STARLINK-3772,PAYLOAD,2022-07-09 20:00:01,15.20811641,0.0001359,53.2176,349.80800000000005,77.9951,56.8872,-0.034701,-0.00722331,0.0,0 STARLINK-3772,1 52290U 22041AF  22190.83334491 -.00722331  00000-0 -34701-1 0  9992,2 52290  53.2176 349.8080 0001359  77.9951  56.8872 15.20811641  1301,6881.528,94.686,504.328,502.458,0.0
52290.0,STARLINK-3772,PAYLOAD,2022-07-10 14:00:01,15.19664044,0.0001373,53.2176,346.3798,68.8091,212.9714,-0.03585,-0.00721614,0.0,0 STARLINK-3772,1 52290U 22041AF  22191.58334491 -.00721614  00000-0 -35850-1 0  9994,2 52290  53.2176 346.3798 0001373  68.8091 212.9714 15.19664044  1300,6884.9919999999975,94.758,507.802,505.912,0.0
52290.0,STARLINK-3772,PAYLOAD,2022-07-10 22:00:00,15.19153699,0.0001248,53.2172,344.8594,91.8681,214.2039,-0.036316,-0.00720273,0.0,0 STARLINK-3772,1 52290U 22041AF  22191.91667824 -.00720273  00000-0 -36316-1 0  9998,2 52290  53.2172 344.8594 0001248  91.8681 214.2039 15.19153699 13751,6886.534000000002,94.79,509.258,507.54,0.0
52290.0,STARLINK-3772,PAYLOAD,2022-07-11 14:00:01,15.18134722,0.0001306,53.2176,341.8196,67.9893,284.8288,-0.037532,-0.00722524,0.0,0 STARLINK-3772,1 52290U 22041AF  22192.58334491 -.00722524  00000-0 -37532-1 0  9995,2 52290  53.2176 341.8196 0001306  67.9893 284.8288 15.18134722  1306,6889.615,94.853,512.38,510.58,0.0
52290.0,STARLINK-3772,PAYLOAD,2022-07-11 22:00:00,15.17624485,0.0001181,53.2172,340.3026,90.5427,284.7286,-0.038018,-0.00721237,0.0,0 STARLINK-3772,1 52290U 22041AF  22192.91667824 -.00721237  00000-0 -38018-1 0  9991,2 52290  53.2172 340.3026 0001181  90.5427 284.7286 15.17624485  1300,6891.159000000002,94.885,513.8380000000002,512.21,0.0
52290.0,STARLINK-3772,PAYLOAD,2022-07-12 14:00:01,15.16604934,0.0001336,53.2176,337.2702,66.4929,351.8479,-0.03925,-0.00722958,0.0,0 STARLINK-3772,1 52290U 22041AF  22193.58334491 -.00722958  00000-0 -39250-1 0  9996,2 52290  53.2176 337.2702 0001336  66.4929 351.8479 15.16604934  1307,6894.246999999999,94.949,517.033,515.191,0.0
52290.0,STARLINK-3772,PAYLOAD,2022-07-12 22:00:00,15.16094184,0.0001232,53.2172,335.7565,86.4407,352.5153,-0.039693,-0.00720643,0.0,0 STARLINK-3772,1 52290U 22041AF  22193.91667824 -.00720643  00000-0 -39693-1 0  9992,2 52290  53.2172 335.7565 0001232  86.4407 352.5153 15.16094184 14065,6895.795999999999,94.981,518.51,516.811,0.0
52290.0,STARLINK-3772,PAYLOAD,2022-07-13 14:00:01,15.15074191,0.0001413,53.2175,332.7313,68.7014,49.6475,-0.040938,-0.00721846,0.0,0 STARLINK-3772,1 52290U 22041AF  22194.58334491 -.00721846  00000-0 -40938-1 0  9997,2 52290  53.2175 332.7313 0001413  68.7014  49.6475 15.15074191  1303,6898.89,95.045,521.73,519.781,0.0
52290.0,STARLINK-3772,PAYLOAD,2022-07-13 22:00:00,15.14564232,0.0001325,53.2172,331.221,85.5096,51.6159,-0.041472,-0.00720802,0.0,0 STARLINK-3772,1 52290U 22041AF  22194.91667824 -.00720802  00000-0 -41472-1 0  9998,2 52290  53.2172 331.2210 0001325  85.5096  51.6159 15.14564232 14214,6900.439,95.077,523.2180000000002,521.39,0.0
52290.0,STARLINK-3772,PAYLOAD,2022-07-14 14:00:01,15.13543206,0.0001469,53.2175,328.2032,69.5533,103.2886,-0.042647,-0.00720166,0.0,0 STARLINK-3772,1 52290U 22041AF  22195.58334491 -.00720166  00000-0 -42647-1 0  9991,2 52290  53.2175 328.2032 0001469  69.5533 103.2886 15.13543206  1306,6903.542,95.141,526.4209999999998,524.393,0.0
52290.0,STARLINK-3772,PAYLOAD,2022-07-14 22:00:00,15.13034919,0.0001369,53.2172,326.6963,84.119,105.6606,-0.043393,-0.00722181,0.0,0 STARLINK-3772,1 52290U 22041AF  22195.91667824 -.00722181  00000-0 -43393-1 0  9995,2 52290  53.2172 326.6963 0001369  84.1190 105.6606 15.13034919 14361,6905.0880000000025,95.173,527.898,526.008,0.0
52290.0,STARLINK-3772,PAYLOAD,2022-07-15 14:00:01,15.12012686,0.0001474,53.2174,323.6857,70.5829,151.2365,-0.044448,-0.00719049,0.0,0 STARLINK-3772,1 52290U 22041AF  22196.58334491 -.00719049  00000-0 -44448-1 0  9991,2 52290  53.2174 323.6857 0001474  70.5829 151.2365 15.12012686  1302,6908.2,95.237,531.0830000000002,529.0459999999998,0.0
52290.0,STARLINK-3772,PAYLOAD,2022-07-15 22:00:00,15.11505919,0.0001359,53.2172,322.1823,91.2967,145.6218,-0.045418,-0.00724027,0.0,0 STARLINK-3772,1 52290U 22041AF  22196.91667824 -.00724027  00000-0 -45418-1 0  9997,2 52290  53.2172 322.1823 0001359  91.2967 145.6218 15.11505919  1301,6909.744000000002,95.269,532.548,530.67,0.0
